NORAD_CAT_ID,OBJECT_NAME,OBJECT_TYPE,EPOCH,MEAN_MOTION,ECCENTRICITY,INCLINATION,RA_OF_ASC_NODE,ARG_OF_PERICENTER,MEAN_ANOMALY,BSTAR,MEAN_MOTION_DOT,MEAN_MOTION_DDOT,TLE_LINE0,TLE_LINE1,TLE_LINE2,SEMIMAJOR_AXIS,PERIOD,APOGEE,PERIGEE,DECAYED
53388.0,STARLINK-4522,PAYLOAD,2024-05-09 15:10:45,15.08838091,0.0001414,53.2182,247.6376,102.2757,257.8394,8.419e-05,1.052e-05,0.0,0 STARLINK-4522,1 53388U 22097A   24130.63247213  .00001052  00000-0  84190-4 0  9999,2 53388  53.2182 247.6376 0001414 102.2757 257.8394 15.08838091 97848,6917.886,95.438,540.729,538.773,0.0
53388.0,STARLINK-4522,PAYLOAD,2024-05-10 13:26:09,15.08845453,0.0001432,53.2189,243.4722,96.8685,263.247,0.00037462,5.68e-05,0.0,0 STARLINK-4522,1 53388U 22097A   24131.55982863  .00005680  00000-0  37462-3 0  9998,2 53388  53.2189 243.4722 0001432  96.8685 263.2470 15.08845453 97152,6917.864,95.437,540.719,538.738,0.0
53388.0,STARLINK-4522,PAYLOAD,2024-05-10 15:01:32,15.08851069,0.0001305,53.218,243.1744,93.6782,266.436,0.00027289,4.059e-05,0.0,0 STARLINK-4522,1 53388U 22097A   24131.62606536  .00004059  00000-0  27289-3 0  9991,2 53388  53.2180 243.1744 0001305  93.6782 266.4360 15.08851069 97991,6917.847,95.437,540.614,538.809,0.0
53388.0,STARLINK-4522,PAYLOAD,2024-05-11 13:16:52,15.08946943,0.0001502,53.2184,239.0123,101.0228,259.0933,0.0026068,0.00041566,0.0,0 STARLINK-4522,1 53388U 22097A   24132.55338922  .00041566  00000-0  26068-2 0  9992,2 53388  53.2184 239.0123 0001502 101.0228 259.0933 15.08946943 97303,6917.554,95.431,540.458,538.38,0.0
53388.0,STARLINK-4522,PAYLOAD,2024-05-11 16:27:37,15.08974738,0.0001498,53.2169,238.4222,82.6517,277.4646,0.0035188,0.0005637,0.0,0 STARLINK-4522,1 53388U 22097A   24132.68585605  .00056370  00000-0  35188-2 0  9990,2 53388  53.2169 238.4222 0001498  82.6517 277.4646 15.08974738 97328,6917.469,95.429,540.37,538.297,0.0
53388.0,STARLINK-4522,PAYLOAD,2024-05-12 00:24:36,15.08810399,0.0002556,53.217,236.9294,84.457,275.6714,-0.0026811,-0.00042674,0.0,0 STARLINK-4522,1 53388U 22097A   24133.01708561 -.00042674  00000-0 -26811-2 0  9993,2 53388  53.2170 236.9294 0002556  84.4570 275.6714 15.08810399 97370,6917.971,95.439,541.604,538.068,0.0
53388.0,STARLINK-4522,PAYLOAD,2024-05-12 13:07:48,15.08584586,0.00013,53.2167,234.5528,127.3128,232.7983,-0.0008529,-0.00013741,0.0,0 STARLINK-4522,1 53388U 22097A   24133.54708914 -.00013741  00000-0 -85290-3 0  9993,2 53388  53.2167 234.5528 0001300 127.3128 232.7983 15.08584586 97459,6918.661,95.454,541.426,539.627,0.0
53388.0,STARLINK-4522,PAYLOAD,2024-05-12 16:18:36,15.08565792,0.000124,53.2164,233.9583,122.6635,237.4477,0.00090138,0.0001398,0.0,0 STARLINK-4522,1 53388U 22097A   24133.67959450  .00013980  00000-0  90138-3 0  9990,2 53388  53.2164 233.9583 0001240 122.6635 237.4477 15.08565792 98307,6918.719,95.455,541.442,539.726,0.0
53388.0,STARLINK-4522,PAYLOAD,2024-05-13 00:15:34,15.08681881,6.09e-05,53.2167,232.4754,199.5016,160.5953,0.0042282,0.00067355,0.0,0 STARLINK-4522,1 53388U 22097A   24134.01082059  .00067355  00000-0  42282-2 0  9992,2 53388  53.2167 232.4754 0000609 199.5016 160.5953 15.08681881 97524,6918.364,95.448,540.65,539.807,0.0
53388.0,STARLINK-4522,PAYLOAD,2024-05-13 12:58:39,15.08899002,0.0001173,53.2172,230.0932,105.5006,254.6116,0.0025269,0.00040222,0.0,0 STARLINK-4522,1 53388U 22097A   24134.54073463  .00040222  00000-0  25269-2 0  9999,2 53388  53.2172 230.0932 0001173 105.5006 254.6116 15.08899002 98438,6917.7,95.434,540.376,538.754,0.0
53388.0,STARLINK-4522,PAYLOAD,2024-05-14 12:49:21,15.08943745,0.0001256,53.2166,225.6326,102.2562,257.8571,0.0016329,0.00025869,0.0,0 STARLINK-4522,1 53388U 22097A   24135.53428179  .00025869  00000-0  16329-2 0  9994,2 53388  53.2166 225.6326 0001256 102.2562 257.8571 15.08943745 97759,6917.563,95.431,540.297,538.559,0.0
53388.0,STARLINK-4522,PAYLOAD,2024-05-15 06:18:33,15.08931659,9.83e-05,53.2168,222.3607,89.5343,270.5761,0.0013551,0.00021398,0.0,0 STARLINK-4522,1 53388U 22097A   24136.26288631  .00021398  00000-0  13551-2 0  9999,2 53388  53.2168 222.3607 0000983  89.5343 270.5761 15.08931659 97863,6917.6,95.432,540.145,538.785,0.0
53388.0,STARLINK-4522,PAYLOAD,2024-05-15 12:40:05,15.08884665,0.0001133,53.2168,221.1702,84.6192,275.493,0.0014789,0.00023356,0.0,0 STARLINK-4522,1 53388U 22097A   24136.52783952  .00023356  00000-0  14789-2 0  9994,2 53388  53.2168 221.1702 0001133  84.6192 275.4930 15.08884665 97903,6917.744,95.435,540.393,538.825,0.0
53388.0,STARLINK-4522,PAYLOAD,2024-05-15 22:12:22,15.08903588,0.0001224,53.2163,219.3872,69.4834,290.629,0.0017354,0.00027487,0.0,0 STARLINK-4522,1 53388U 22097A   24136.92526612  .00027487  00000-0  17354-2 0  9996,2 53388  53.2163 219.3872 0001224  69.4834 290.6290 15.08903588 98792,6917.686,95.434,540.398,538.704,0.0
53388.0,STARLINK-4522,PAYLOAD,2024-05-16 12:30:52,15.08830703,0.0001046,53.2163,216.7131,105.2057,254.9051,0.0023796,0.00037777,0.0,0 STARLINK-4522,1 53388U 22097A   24137.52143784  .00037777  00000-0  23796-2 0  9998,2 53388  53.2163 216.7131 0001046 105.2057 254.9051 15.08830703 98054,6917.909,95.438,540.497,539.05,0.0
53388.0,STARLINK-4522,PAYLOAD,2024-05-16 22:03:10,15.08867705,0.0001018,53.216,214.9264,79.6906,280.42,0.0029225,0.00046566,0.0,0 STARLINK-4522,1 53388U 22097A   24137.91887531  .00046566  00000-0  29225-2 0  9995,2 53388  53.2160 214.9264 0001018  79.6906 280.4200 15.08867705 98944,6917.796,95.436,540.365,538.956,0.0
53388.0,STARLINK-4522,PAYLOAD,2024-05-17 12:21:39,15.08846344,0.0001458,53.2168,212.2534,89.9301,270.1859,0.0014263,0.00022488,0.0,0 STARLINK-4522,1 53388U 22097A   24138.51503836  .00022488  00000-0  14263-2 0  9998,2 53388  53.2168 212.2534 0001458  89.9301 270.1859 15.08846344 98205,6917.861,95.437,540.735,538.717,0.0
53388.0,STARLINK-4522,PAYLOAD,2024-05-17 21:53:57,15.08870949,0.0001435,53.2167,210.4653,87.9514,272.1642,0.0016333,0.00025824,0.0,0 STARLINK-4522,1 53388U 22097A   24138.91247198  .00025824  00000-0  16333-2 0  9995,2 53388  53.2167 210.4653 0001435  87.9514 272.1642 15.08870949 99093,6917.786,95.436,540.643,538.658,0.0
53388.0,STARLINK-4522,PAYLOAD,2024-05-18 12:12:25,15.08864715,0.0001305,53.2156,207.789,104.0971,256.0166,0.001877,0.00029731,0.0,0 STARLINK-4522,1 53388U 22097A   24139.50863021  .00029731  00000-0  18770-2 0  9998,2 53388  53.2156 207.7890 0001305 104.0971 256.0166 15.08864715 98351,6917.805,95.436,540.573,538.767,0.0
53388.0,STARLINK-4522,PAYLOAD,2024-05-18 13:47:48,15.08867556,0.000128,53.2156,207.4917,101.9545,258.159,0.0022348,0.00035485,0.0,0 STARLINK-4522,1 53388U 22097A   24139.57486962  .00035485  00000-0  22348-2 0  9999,2 53388  53.2156 207.4917 0001280 101.9545 258.1590 15.08867556 99196,6917.796,95.436,540.547,538.776,0.0
53388.0,STARLINK-4522,PAYLOAD,2024-05-18 21:44:43,15.08888575,0.0001782,53.2163,206.0043,61.4572,298.6599,0.0021402,0.00033983,0.0,0 STARLINK-4522,1 53388U 22097A   24139.90606405  .00033983  00000-0  21402-2 0  9993,2 53388  53.2163 206.0043 0001782  61.4572 298.6599 15.08888575 99244,6917.732,95.434,540.83,538.364,0.0
53388.0,STARLINK-4522,PAYLOAD,2024-05-19 04:06:17,15.08804126,0.0001244,53.2164,204.8155,79.2586,280.8546,-0.0014811,-0.00023759,0.0,0 STARLINK-4522,1 53388U 22097A   24140.17103045 -.00023759  00000-0 -14811-2 0  9994,2 53388  53.2164 204.8155 0001244  79.2586 280.8546 15.08804126 98457,6917.99,95.44,540.716,538.994,0.0
53388.0,STARLINK-4522,PAYLOAD,2024-05-19 10:27:50,15.0879723,0.0001438,53.2157,203.6269,73.2336,286.8813,0.00048091,7.365e-05,0.0,0 STARLINK-4522,1 53388U 22097A   24140.43600063  .00007365  00000-0  48091-3 0  9996,2 53388  53.2157 203.6269 0001438  73.2336 286.8813 15.08797230 99321,6918.011,95.44,540.871,538.881,0.0
53388.0,STARLINK-4522,PAYLOAD,2024-05-20 03:57:05,15.08838612,0.0001475,53.2161,200.3558,72.5918,287.5235,0.0015776,0.00024908,0.0,0 STARLINK-4522,1 53388U 22097A   24141.16464974  .00024908  00000-0  15776-2 0  9991,2 53388  53.2161 200.3558 0001475  72.5918 287.5235 15.08838612 98606,6917.885,95.438,540.77,538.729,0.0
53388.0,STARLINK-4522,PAYLOAD,2024-05-20 13:29:24,15.08865406,0.0001446,53.2159,198.572,69.7171,290.3977,0.0018723,0.00029656,0.0,0 STARLINK-4522,1 53388U 22097A   24141.56208571  .00029656  00000-0  18723-2 0  9994,2 53388  53.2159 198.5720 0001446  69.7171 290.3977 15.08865406 99493,6917.803,95.436,540.668,538.667,0.0
53388.0,STARLINK-4522,PAYLOAD,2024-05-21 03:47:52,15.08853281,0.0001342,53.2161,195.8894,99.7178,260.3966,0.00062712,9.71e-05,0.0,0 STARLINK-4522,1 53388U 22097A   24142.15824235  .00009710  00000-0  62712-3 0  9998,2 53388  53.2161 195.8894 0001342  99.7178 260.3966 15.08853281 98754,6917.84,95.437,540.633,538.776,0.0
53388.0,STARLINK-4522,PAYLOAD,2024-05-21 08:34:01,15.08842955,0.0001764,53.2151,195.0033,23.8372,336.2702,0.001103,0.00017311,0.0,0 STARLINK-4522,1 53388U 22097A   24142.35696651  .00017311  00000-0  11030-2 0  9991,2 53388  53.2151 195.0033 0001764  23.8372 336.2702 15.08842955 98782,6917.871,95.437,540.957,538.516,0.0
53388.0,STARLINK-4522,PAYLOAD,2024-05-22 03:38:39,15.08846201,0.0001555,53.2156,191.4347,63.3268,296.7883,0.00072902,0.00011335,0.0,0 STARLINK-4522,1 53388U 22097A   24143.15184637  .00011335  00000-0  72902-3 0  9992,2 53388  53.2156 191.4347 0001555  63.3268 296.7883 15.08846201 98908,6917.861,95.437,540.802,538.651,0.0
53388.0,STARLINK-4522,PAYLOAD,2024-05-22 10:00:11,15.08842299,0.00013,53.2155,190.2418,92.274,267.8401,1.9201e-05,1.8e-07,0.0,0 STARLINK-4522,1 53388U 22097A   24143.41680357  .00000018  00000-0  19201-4 0  9991,2 53388  53.2155 190.2418 0001300  92.2740 267.8401 15.08842299 99771,6917.873,95.437,540.638,538.839,0.0
53388.0,STARLINK-4522,PAYLOAD,2024-05-23 09:50:59,15.08836631,0.0001279,53.2169,185.7828,88.7035,271.4104,0.00010783,1.428e-05,0.0,0 STARLINK-4522,1 53388U 22097A   24144.41040760  .00001428  00000-0  10783-3 0  9991,2 53388  53.2169 185.7828 0001279  88.7035 271.4104 15.08836631 99091,6917.891,95.438,540.64,538.871,0.0
